start=new Date('2022-01-21T00:00:00.000Z').valueOf();
sats=[{"MEAN_MOTION":"15.40455382","TLE_LINE1":"1 49762U 21115AQ  22020.58334491 -.00078698  00000-0 -19237-2 0  9995","TLE_LINE2":"2 49762  53.2165  88.1509 0002773  15.0094 172.8226 15.40455382  3616","MEAN_ELEMENT_THEORY":"SGP4","CLASSIFICATION_TYPE":"U","SITE":"AFETR","INCLINATION":"53.2165","PERIAPSIS":"442.874","GP_ID":"194262812","BSTAR":"-0.00192370000000","MEAN_MOTION_DOT":"-0.00078698","RA_OF_ASC_NODE":"88.1509","OBJECT_TYPE":"PAYLOAD","REV_AT_EPOCH":"361","FILE":"3278533","LAUNCH_DATE":"2021-12-02","RCS_SIZE":"LARGE","ARG_OF_PERICENTER":"15.0094","CENTER_NAME":"EARTH","PERIOD":"93.479","TIME_SYSTEM":"UTC","SEMIMAJOR_AXIS":"6822.901","COUNTRY_CODE":"US","MEAN_ANOMALY":"172.8226","REF_FRAME":"TEME","OBJECT_ID":"2021-115AQ","MEAN_MOTION_DDOT":"0.0000000000000","ELEMENT_SET_NO":"999","OBJECT_NAME":"STARLINK-3195","EPHEMERIS_TYPE":"0","NORAD_CAT_ID":"49762","ECCENTRICITY":"0.00027730","DECAY_DATE":null,"EPOCH":"2022-01-20T14:00:01.000224","APOAPSIS":"446.658"},{"MEAN_MOTION_DOT":"-0.00041370","BSTAR":"-0.00100210000000","GP_ID":"194262060","INCLINATION":"53.2164","SITE":"AFETR","PERIAPSIS":"442.993","TLE_LINE2":"2 49763  53.2164  88.1455 0002655  14.5113 176.3660 15.40442370  3615","CLASSIFICATION_TYPE":"U","MEAN_ELEMENT_THEORY":"SGP4","TLE_LINE1":"1 49763U 21115AR  22020.58334491 -.00041370  00000-0 -10021-2 0  9995","MEAN_MOTION":"15.40442370","COUNTRY_CODE":"US","SEMIMAJOR_AXIS":"6822.940","PERIOD":"93.480","TIME_SYSTEM":"UTC","CENTER_NAME":"EARTH","LAUNCH_DATE":"2021-12-02","ARG_OF_PERICENTER":"14.5113","RCS_SIZE":"LARGE","REV_AT_EPOCH":"361","FILE":"3278533","OBJECT_TYPE":"PAYLOAD","RA_OF_ASC_NODE":"88.1455","EPHEMERIS_TYPE":"0","OBJECT_NAME":"STARLINK-3198","ELEMENT_SET_NO":"999","OBJECT_ID":"2021-115AR","MEAN_MOTION_DDOT":"0.0000000000000","MEAN_ANOMALY":"176.3660","REF_FRAME":"TEME","APOAPSIS":"446.616","DECAY_DATE":null,"EPOCH":"2022-01-20T14:00:01.000224","NORAD_CAT_ID":"49763","ECCENTRICITY":"0.00026550"},{"RA_OF_ASC_NODE":"88.1534","OBJECT_TYPE":"PAYLOAD","REV_AT_EPOCH":"361","FILE":"3278533","LAUNCH_DATE":"2021-12-02","ARG_OF_PERICENTER":"17.7183","RCS_SIZE":"LARGE","CENTER_NAME":"EARTH","PERIOD":"93.480","TIME_SYSTEM":"UTC","SEMIMAJOR_AXIS":"6822.975","COUNTRY_CODE":"US","MEAN_MOTION":"15.40430356","TLE_LINE1":"1 49764U 21115AS  22020.58334491 -.00056809  00000-0 -13831-2 0  9991","TLE_LINE2":"2 49764  53.2160  88.1534 0002708  17.7183 168.0114 15.40430356  3614","MEAN_ELEMENT_THEORY":"SGP4","CLASSIFICATION_TYPE":"U","SITE":"AFETR","INCLINATION":"53.2160","PERIAPSIS":"442.993","BSTAR":"-0.00138310000000","GP_ID":"194262306","MEAN_MOTION_DOT":"-0.00056809","NORAD_CAT_ID":"49764","ECCENTRICITY":"0.00027080","DECAY_DATE":null,"EPOCH":"2022-01-20T14:00:01.000224","APOAPSIS":"446.688","MEAN_ANOMALY":"168.0114","REF_FRAME":"TEME","OBJECT_ID":"2021-115AS","MEAN_MOTION_DDOT":"0.0000000000000","ELEMENT_SET_NO":"999","OBJECT_NAME":"STARLINK-3206","EPHEMERIS_TYPE":"0"},{"APOAPSIS":"446.808","NORAD_CAT_ID":"49765","ECCENTRICITY":"0.00026770","DECAY_DATE":null,"EPOCH":"2022-01-20T14:00:01.000224","OBJECT_NAME":"STARLINK-3227","EPHEMERIS_TYPE":"0","OBJECT_ID":"2021-115AT","MEAN_MOTION_DDOT":"0.0000000000000","ELEMENT_SET_NO":"999","MEAN_ANOMALY":"173.4385","REF_FRAME":"TEME","SEMIMAJOR_AXIS":"6823.116","COUNTRY_CODE":"US","PERIOD":"93.483","TIME_SYSTEM":"UTC","LAUNCH_DATE":"2021-12-02","RCS_SIZE":"LARGE","ARG_OF_PERICENTER":"15.4220","CENTER_NAME":"EARTH","RA_OF_ASC_NODE":"88.1493","OBJECT_TYPE":"PAYLOAD","REV_AT_EPOCH":"361","FILE":"3278533","MEAN_MOTION_DOT":"0.00039410","BSTAR":"0.00096564000000","GP_ID":"194263061","MEAN_ELEMENT_THEORY":"SGP4","TLE_LINE2":"2 49765  53.2165  88.1493 0002677  15.4220 173.4385 15.40382630  3617","CLASSIFICATION_TYPE":"U","INCLINATION":"53.2165","SITE":"AFETR","PERIAPSIS":"443.155","MEAN_MOTION":"15.40382630","TLE_LINE1":"1 49765U 21115AT  22020.58334491  .00039410  00000-0  96564-3 0  9994"},{"MEAN_MOTION_DOT":"-0.00056677","BSTAR":"-0.00137850000000","GP_ID":"194263313","TLE_LINE2":"2 49766  53.2159  88.1551 0003072   9.1790 175.4224 15.40458389  3617","MEAN_ELEMENT_THEORY":"SGP4","CLASSIFICATION_TYPE":"U","INCLINATION":"53.2159","SITE":"AFETR","PERIAPSIS":"442.661","MEAN_MOTION":"15.40458389","TLE_LINE1":"1 49766U 21115AU  22020.58334491 -.00056677  00000-0 -13785-2 0  9994","SEMIMAJOR_AXIS":"6822.892","COUNTRY_CODE":"US","PERIOD":"93.479","TIME_SYSTEM":"UTC","LAUNCH_DATE":"2021-12-02","ARG_OF_PERICENTER":"9.1790","RCS_SIZE":"LARGE","CENTER_NAME":"EARTH","OBJECT_TYPE":"PAYLOAD","RA_OF_ASC_NODE":"88.1551","REV_AT_EPOCH":"361","FILE":"3278533","OBJECT_NAME":"STARLINK-3190","EPHEMERIS_TYPE":"0","OBJECT_ID":"2021-115AU","MEAN_MOTION_DDOT":"0.0000000000000","ELEMENT_SET_NO":"999","MEAN_ANOMALY":"175.4224","REF_FRAME":"TEME","APOAPSIS":"446.853","NORAD_CAT_ID":"49766","ECCENTRICITY":"0.00030720","DECAY_DATE":null,"EPOCH":"2022-01-20T14:00:01.000224"},{"APOAPSIS":"446.736","EPOCH":"2022-01-20T14:00:01.000224","DECAY_DATE":null,"ECCENTRICITY":"0.00027210","NORAD_CAT_ID":"49767","ELEMENT_SET_NO":"999","MEAN_MOTION_DDOT":"0.0000000000000","OBJECT_ID":"2021-115AV","REF_FRAME":"TEME","MEAN_ANOMALY":"169.9387","EPHEMERIS_TYPE":"0","OBJECT_NAME":"STARLINK-3192","CENTER_NAME":"EARTH","RCS_SIZE":"LARGE","ARG_OF_PERICENTER":"16.8388","LAUNCH_DATE":"2021-12-02","FILE":"3278533","REV_AT_EPOCH":"361","OBJECT_TYPE":"PAYLOAD","RA_OF_ASC_NODE":"88.1529","COUNTRY_CODE":"US","SEMIMAJOR_AXIS":"6823.014","TIME_SYSTEM":"UTC","PERIOD":"93.481","PERIAPSIS":"443.023","SITE":"AFETR","INCLINATION":"53.2163","CLASSIFICATION_TYPE":"U","TLE_LINE2":"2 49767  53.2163  88.1529 0002721  16.8388 169.9387 15.40417218  3610","MEAN_ELEMENT_THEORY":"SGP4","TLE_LINE1":"1 49767U 21115AV  22020.58334491 -.00029947  00000-0 -72220-3 0  9995","MEAN_MOTION":"15.40417218","MEAN_MOTION_DOT":"-0.00029947","GP_ID":"194261560","BSTAR":"-0.00072220000000"},{"TLE_LINE2":"2 49768  53.2158  88.1582 0003193   9.9212 172.6428 15.40424262  3611","CLASSIFICATION_TYPE":"U","MEAN_ELEMENT_THEORY":"SGP4","SITE":"AFETR","INCLINATION":"53.2158","PERIAPSIS":"442.680","MEAN_MOTION":"15.40424262","TLE_LINE1":"1 49768U 21115AW  22020.58334491 -.00032875  00000-0 -79385-3 0  9999","MEAN_MOTION_DOT":"-0.00032875","GP_ID":"194261806","BSTAR":"-0.00079385000000","LAUNCH_DATE":"2021-12-02","RCS_SIZE":"LARGE","ARG_OF_PERICENTER":"9.9212","CENTER_NAME":"EARTH","OBJECT_TYPE":"PAYLOAD","RA_OF_ASC_NODE":"88.1582","REV_AT_EPOCH":"361","FILE":"3278533","SEMIMAJOR_AXIS":"6822.993","COUNTRY_CODE":"US","PERIOD":"93.481","TIME_SYSTEM":"UTC","OBJECT_ID":"2021-115AW","MEAN_MOTION_DDOT":"0.0000000000000","ELEMENT_SET_NO":"999","MEAN_ANOMALY":"172.6428","REF_FRAME":"TEME","OBJECT_NAME":"STARLINK-3196","EPHEMERIS_TYPE":"0","APOAPSIS":"447.037","NORAD_CAT_ID":"49768","ECCENTRICITY":"0.00031930","DECAY_DATE":null,"EPOCH":"2022-01-20T14:00:01.000224"},{"OBJECT_TYPE":"PAYLOAD","RA_OF_ASC_NODE":"88.1586","FILE":"3278533","REV_AT_EPOCH":"361","ARG_OF_PERICENTER":"9.7515","RCS_SIZE":"LARGE","LAUNCH_DATE":"2021-12-02","CENTER_NAME":"EARTH","TIME_SYSTEM":"UTC","PERIOD":"93.481","SEMIMAJOR_AXIS":"6822.994","COUNTRY_CODE":"US","MEAN_MOTION":"15.40423858","TLE_LINE1":"1 49769U 21115AX  22020.58334491 -.00031003  00000-0 -74790-3 0  9997","TLE_LINE2":"2 49769  53.2162  88.1586 0003245   9.7515 173.8579 15.40423858  3613","CLASSIFICATION_TYPE":"U","MEAN_ELEMENT_THEORY":"SGP4","PERIAPSIS":"442.645","SITE":"AFETR","INCLINATION":"53.2162","BSTAR":"-0.00074790000000","GP_ID":"194262561","MEAN_MOTION_DOT":"-0.00031003","ECCENTRICITY":"0.00032450","NORAD_CAT_ID":"49769","EPOCH":"2022-01-20T14:00:01.000224","DECAY_DATE":null,"APOAPSIS":"447.073","REF_FRAME":"TEME","MEAN_ANOMALY":"173.8579","MEAN_MOTION_DDOT":"0.0000000000000","OBJECT_ID":"2021-115AX","ELEMENT_SET_NO":"999","OBJECT_NAME":"STARLINK-3208","EPHEMERIS_TYPE":"0"},{"APOAPSIS":"446.998","DECAY_DATE":null,"EPOCH":"2022-01-20T14:00:01.000224","NORAD_CAT_ID":"49770","ECCENTRICITY":"0.00032910","EPHEMERIS_TYPE":"0","OBJECT_NAME":"STARLINK-3191","ELEMENT_SET_NO":"999","OBJECT_ID":"2021-115AY","MEAN_MOTION_DDOT":"0.0000000000000","MEAN_ANOMALY":"170.8893","REF_FRAME":"TEME","COUNTRY_CODE":"US","SEMIMAJOR_AXIS":"6822.888","PERIOD":"93.479","TIME_SYSTEM":"UTC","CENTER_NAME":"EARTH","LAUNCH_DATE":"2021-12-02","RCS_SIZE":"LARGE","ARG_OF_PERICENTER":"10.5669","REV_AT_EPOCH":"361","FILE":"3278533","OBJECT_TYPE":"PAYLOAD","RA_OF_ASC_NODE":"88.1604","MEAN_MOTION_DOT":"-0.00058108","BSTAR":"-0.00141370000000","GP_ID":"194262813","SITE":"AFETR","INCLINATION":"53.2158","PERIAPSIS":"442.508","CLASSIFICATION_TYPE":"U","TLE_LINE2":"2 49770  53.2158  88.1604 0003291  10.5669 170.8893 15.40459893  3616","MEAN_ELEMENT_THEORY":"SGP4","TLE_LINE1":"1 49770U 21115AY  22020.58334491 -.00058108  00000-0 -14137-2 0  9992","MEAN_MOTION":"15.40459893"},{"PERIOD":"93.479","TIME_SYSTEM":"UTC","COUNTRY_CODE":"US","SEMIMAJOR_AXIS":"6822.921","REV_AT_EPOCH":"361","FILE":"3278533","RA_OF_ASC_NODE":"88.1646","OBJECT_TYPE":"PAYLOAD","CENTER_NAME":"EARTH","LAUNCH_DATE":"2021-12-02","RCS_SIZE":"LARGE","ARG_OF_PERICENTER":"14.7509","BSTAR":"-0.00186200000000","GP_ID":"194262061","MEAN_MOTION_DOT":"-0.00076195","TLE_LINE1":"1 49771U 21115AZ  22020.58334491 -.00076195  00000-0 -18620-2 0  9990","MEAN_MOTION":"15.40448628","SITE":"AFETR","INCLINATION":"53.2162","PERIAPSIS":"442.868","CLASSIFICATION_TYPE":"U","TLE_LINE2":"2 49771  53.2162  88.1646 0002811  14.7509 165.7334 15.40448628  3611","MEAN_ELEMENT_THEORY":"SGP4","DECAY_DATE":null,"EPOCH":"2022-01-20T14:00:01.000224","NORAD_CAT_ID":"49771","ECCENTRICITY":"0.00028110","APOAPSIS":"446.704","EPHEMERIS_TYPE":"0","OBJECT_NAME":"STARLINK-3201","MEAN_ANOMALY":"165.7334","REF_FRAME":"TEME","ELEMENT_SET_NO":"999","OBJECT_ID":"2021-115AZ","MEAN_MOTION_DDOT":"0.0000000000000"}];
